[Satellite]
VERSION=1.1
NAME=STARLINK-1193
NICKNAME=STARLINK-1193
TLE1=1 45100U 20006BJ  20058.91667824  .00209819  00000-0  14641-2 0  9993
TLE2=2 45100  52.9973  89.6840 0001363  38.7444 259.5399 15.73166530  4985
STATUS=0
